[{"OBJECT_NAME":"STARLINK-5044","OBJECT_ID":"2022-119N","EPOCH":"2026-03-09T22:07:50.755872","MEAN_MOTION":15.08833709,"ECCENTRICITY":0.00012508,"INCLINATION":53.2189,"RA_OF_ASC_NODE":322.7953,"ARG_OF_PERICENTER":89.0738,"MEAN_ANOMALY":271.0397,"EPHEMERIS_TYPE":0,"CLASSIFICATION_TYPE":"U","NORAD_CAT_ID":53898,"ELEMENT_SET_NO":999,"REV_AT_EPOCH":19172,"BSTAR":-2.937456e-6,"MEAN_MOTION_DOT":-3.35e-6,"MEAN_MOTION_DDOT":0},{"OBJECT_NAME":"COSMOS 2084","OBJECT_ID":"1990-055A","EPOCH":"2026-03-09T23:42:10.320480","MEAN_MOTION":15.05654003,"ECCENTRICITY":0.00170188,"INCLINATION":62.7921,"RA_OF_ASC_NODE":334.5624,"ARG_OF_PERICENTER":190.1371,"MEAN_ANOMALY":169.9389,"EPHEMERIS_TYPE":0,"CLASSIFICATION_TYPE":"U","NORAD_CAT_ID":20663,"ELEMENT_SET_NO":999,"REV_AT_EPOCH":93636,"BSTAR":0.00023056361,"MEAN_MOTION_DOT":3.154e-5,"MEAN_MOTION_DDOT":0}]
